STARLINK-31
1 44235U 19029A   20032.58334491  .00026975  00000-0  15589-2 0  9992
2 44235  53.0002 111.4803 0001263  66.3846 152.9869 15.12125722 39508
STARLINK-22
1 44236U 19029B   20032.58334491  .00568795  00000-0  15910-1 0  9991
2 44236  52.9981 110.6554 0002037  37.1048 319.0156 15.34157739 39510
STARLINK-23
1 44237U 19029C   20032.58334491  .00021956  00000-0  12730-2 0  9993
2 44237  52.9971 111.2842 0001461  70.4585 112.9019 15.12123177 38391
STARLINK-24
1 44238U 19029D   20032.46146590  .00001839  00000-0  12184-3 0  9994
2 44238  52.9976 111.1401 0001229 108.1111 252.0014 15.12343924 38309
STARLINK-25
1 44239U 19029E   20032.58334491  .00024993  00000-0  14465-2 0  9996
2 44239  53.0040 111.7164 0001258  69.6343 203.7010 15.12113541 38305
STARLINK-26
1 44240U 19029F   20032.58334491  .00040469  00000-0  90353-3 0  9995
2 44240  53.0074  96.3823 0001104  67.1436 102.8252 15.43164397 38597
STARLINK-27
1 44241U 19029G   20032.58334491  .00021437  00000-0  12438-2 0  9997
2 44241  53.0026 111.5987 0001561  81.1282 156.2469 15.12110495 38384
STARLINK-28
1 44242U 19029H   20032.58334491  .00035679  00000-0  92268-3 0  9991
2 44242  52.9937 105.8192 0001844  56.5549 214.2871 15.38778821 38455
STARLINK-29
1 44243U 19029J   20032.58334491  .00012760  00000-0  31116-3 0  9993
2 44243  53.0003  53.4715 0006291 342.7198  97.4815 15.41258416 39189
STARLINK-30
1 44244U 19029K   20032.58334491  .00020133  00000-0  11694-2 0  9995
2 44244  52.9998 111.1583 0001403  55.8656  67.5111 15.12110831 38358
STARLINK-21
1 44245U 19029L   20032.58334491  .00032274  00000-0  18605-2 0  9994
2 44245  52.9959 111.3662 0001496  60.9271 146.4817 15.12123370 38361
STARLINK-46
1 44246U 19029M   20032.58334491  .00238336  11425-4  23323-3 0  9993
2 44246  52.9883   1.9633 0074453 171.5690 147.4554 16.05049298 39647
STARLINK-33
1 44247U 19029N   20032.58334491  .00034046  00000-0  88129-3 0  9994
2 44247  53.0049 107.2824 0001328  66.6069 222.2350 15.38772745 38461
STARLINK-34
1 44248U 19029P   20032.58334491  .00479691  00000-0  19493-1 0  9990
2 44248  52.9959 110.1882 0001578  55.4660  59.2346 15.21885537 38332
STARLINK-61
1 44249U 19029Q   20032.58334491  .00023970  00000-0  11732-2 0  9995
2 44249  52.9972 103.7682 0006655 317.2146  73.0560 15.18069105 38505
STARLINK-36
1 44250U 19029R   20032.58334491  .00025653  00000-0  14832-2 0  9991
2 44250  52.9987 111.2602 0001101  67.0573  86.3018 15.12135186 38348
STARLINK-37
1 44251U 19029S   20032.58334491  .00020577  00000-0  11942-2 0  9991
2 44251  52.9809 110.5345 0001220  94.1916  65.1735 15.12125935 38311
STARLINK-71
1 44252U 19029T   20032.58334491  .00025198  00000-0  14587-2 0  9994
2 44252  52.9977 110.4058 0001040  62.5399 204.8722 15.12100078 38322
STARLINK-39
1 44253U 19029U   20032.25001157  .00245009  00000-0  13617-1 0  9996
2 44253  53.0024 113.0732 0001239  87.8884 121.8758 15.12077485  1798
STARLINK-32
1 44254U 19029V   20032.58334491  .00024974  00000-0  14455-2 0  9991
2 44254  52.9970 111.2774 0001288  72.0398 105.3035 15.12110664 38335
STARLINK-66
1 44255U 19029W   20032.58334491  .00036998  00000-0  95652-3 0  9990
2 44255  53.0028 107.0415 0001378  74.9342 207.9331 15.38770451 38395
STARLINK-42
1 44256U 19029X   20032.58334491  .00619349  00000-0  15738-1 0  9993
2 44256  52.9915 108.5555 0001515  58.6652 247.6075 15.36986646 38339
STARLINK-43
1 44257U 19029Y   20032.58334491  .00050947  00000-0  17430-2 0  9999
2 44257  53.0004  76.1811 0001056 101.9055 353.4799 15.29775273 38888
STARLINK-40
1 44258U 19029Z   20032.58334491  .00042125  00000-0  24192-2 0  9992
2 44258  52.9979 111.2740 0001558  68.9991 102.4131 15.12133363 38374
STARLINK-52
1 44259U 19029AA  20032.44218653  .00000795  00000-0  28773-4 0  9997
2 44259  53.0019  55.6137 0001561 119.1922 240.9238 15.40902665 39029
STARLINK-45
1 44260U 19029AB  20032.58334491  .00024341  00000-0  14089-2 0  9999
2 44260  53.0076 110.0596 0001611  62.3796 138.9732 15.12124843 38446
STARLINK-44
1 44261U 19029AC  20032.58334491  .00023590  00000-0  13663-2 0  9992
2 44261  52.9980 111.2533 0001545  73.0949  92.2528 15.12119364 38388
STARLINK-49
1 44262U 19029AD  20032.58334491  .00023714  00000-0  13740-2 0  9997
2 44262  53.0024 111.6092 0001045  81.5996 161.7514 15.12102528 38397
STARLINK-72
1 44263U 19029AE  20032.58334491  .00017736  00000-0  10319-2 0  9994
2 44263  53.0007 111.0976 0001532  67.9321  49.4592 15.12133808 38387
STARLINK-35
1 44264U 19029AF  20032.58334491  .00018647  00000-0  10840-2 0  9996
2 44264  52.9996 111.1961 0001413  69.7783  65.5848 15.12130450 38369
STARLINK-63
1 44265U 19029AG  20032.58334491  .00019645  00000-0  11410-2 0  9990
2 44265  52.9990 110.5743 0001612  61.2945  80.0634 15.12127150 38406
STARLINK-54
1 44266U 19029AH  20032.58334491  .00026247  00000-0  15182-2 0  9997
2 44266  52.9923 110.6072 0001281  95.5500 189.8378 15.12107447 38330
STARLINK-69
1 44267U 19029AJ  20032.58334491  .00031859  00000-0  18367-2 0  9991
2 44267  52.9977 110.4245 0001183  68.7341 144.5899 15.12127474 38378
STARLINK-55
1 44268U 19029AK  20032.58334491  .00034799  00000-0  90034-3 0  9990
2 44268  52.9935 106.7160 0001410  88.5697 188.2701 15.38776698 38399
STARLINK-57
1 44269U 19029AL  20032.58334491  .00024791  00000-0  14347-2 0  9994
2 44269  52.9964 110.9719 0001243  73.0391 176.3499 15.12120678 38411
STARLINK-58
1 44270U 19029AM  20032.58334491  .00091953  00000-0  40355-2 0  9998
2 44270  52.9963 110.4869 0001448  60.4772 112.9581 15.21187933 38418
STARLINK-59
1 44271U 19029AN  20032.58334491  .00017634  00000-0  10269-2 0  9994
2 44271  52.9980 110.5147 0001334  72.1499  33.2659 15.12105160 38400
STARLINK-51
1 44272U 19029AP  20032.58334491  .00021341  00000-0  12382-2 0  9993
2 44272  52.9979 111.1377 0001268  60.1231  69.2462 15.12114683 38375
STARLINK-60
1 44273U 19029AQ  20032.28119323  .00024079  00000-0  41561-3 0  9999
2 44273  52.9998  45.9521 0006106   6.7476 353.3612 15.50889664 39268
STARLINK-62
1 44274U 19029AR  20032.58334491  .00102334  00000-0  44835-2 0  9995
2 44274  52.9984 110.0691 0001485  59.1610 108.2281 15.21184979 38378
STARLINK-64
1 44275U 19029AS  20032.58334491  .00221393  00000-0  71620-2 0  9995
2 44275  52.9889 109.2352 0001396  66.1774  72.7198 15.30667768 38382
STARLINK-65
1 44276U 19029AT  20032.58334491  .00015736  00000-0  91827-3 0  9990
2 44276  53.0013 111.0661 0001431  58.8321  22.5348 15.12111806 38381
STARLINK-41
1 44277U 19029AU  20032.58334491  .00538482  00000-0  15221-1 0  9991
2 44277  53.0031 109.6836 0001806  43.8705 316.2906 15.33585404 38403
STARLINK-67
1 44278U 19029AV  20032.58334491  .00082210  13579-4  27531-3 0  9993
2 44278  52.9945 349.0810 0021468  74.8443  83.9536 15.89863487 40048
STARLINK-68
1 44279U 19029AW  20032.58334491  .00025850  00000-0  14944-2 0  9995
2 44279  52.9995 110.0542 0001342  59.2669  88.1023 15.12135881 38353
STARLINK-38
1 44280U 19029AX  20032.58334491  .00018400  00000-0  10704-2 0  9990
2 44280  53.0010 111.0305 0001491  69.0794  18.2716 15.12113003 38395
STARLINK-70
1 44281U 19029AY  20032.58334491  .00025285  00000-0  14635-2 0  9997
2 44281  52.9989 110.6031 0000982  67.3310 128.0217 15.12104864 38334
STARLINK-80
1 44282U 19029AZ  20032.16622548  .00004116  00000-0  18062-3 0  9994
2 44282  53.0199  87.7590 0005050 161.2761 198.8422 15.24143482 37085
STARLINK-56
1 44283U 19029BA  20032.58334491  .00017682  00000-0  10297-2 0  9991
2 44283  53.0010 111.1143 0001459  69.5459  29.8501 15.12103220 38396
STARLINK-73
1 44284U 19029BB  20032.58334491  .00017183  00000-0  10011-2 0  9992
2 44284  53.0009 111.0896 0001450  77.2491  16.1122 15.12106706 38381
STARLINK-50
1 44285U 19029BC  20032.58334491  .00017449  00000-0  10163-2 0  9996
2 44285  52.9990 111.0993 0001315  76.7124  34.7046 15.12105878 39442
STARLINK-75
1 44286U 19029BD  20032.58334491  .00523260  00000-0  15128-1 0  9995
2 44286  53.0041 107.6929 0002214  31.5471 335.2534 15.32934150 39496
STARLINK-76
1 44287U 19029BE  20032.58334491  .00025504  00000-0  14761-2 0  9997
2 44287  52.9968 111.3074 0001218  66.2747 123.1188 15.12100768 39442
STARLINK-79
1 44288U 19029BF  20032.58334491  .00025798  00000-0  14914-2 0  9993
2 44288  53.0032 111.6781 0001107  65.9120 195.3987 15.12136570 39452
STARLINK-48
1 44289U 19029BG  20032.58334491  .00037846  00000-0  17646-2 0  9996
2 44289  52.9991  91.4238 0002051 123.2117 147.6967 15.19534113 39719
STARLINK-78
1 44290U 19029BH  20032.58334491  .00024977  00000-0  14451-2 0  9990
2 44290  53.0028 111.5735 0000838  73.6137 181.7377 15.12124966 39450
STARLINK-77
1 44291U 19029BJ  20032.58334491  .00021836  00000-0  12670-2 0  9993
2 44291  53.0039 111.7454 0001540  67.6016 211.7979 15.12099040 39448
STARLINK-81
1 44292U 19029BK  20032.58334491  .00021379  00000-0  12398-2 0  9993
2 44292  53.0039 111.7728 0000992  65.8402 225.5430 15.12131242 39437
STARLINK-74
1 44293U 19029BL  20032.58334491  .00023991  00000-0  13898-2 0  9992
2 44293  53.0028 111.6283 0001229  69.4309 161.8934 15.12102029 39444
STARLINK-53
1 44294U 19029BM  20032.58334491  .00017586  00000-0  10239-2 0  9992
2 44294  52.9979 110.4829 0001734  55.6059  19.7776 15.12113737 39444
STARLINK-1007
1 44713U 19074A   20032.58334491  .00019320  00000-0  14159-3 0  9992
2 44713  53.0051 122.9368 0003224  22.2755 228.5878 15.73221519 12920
STARLINK-1008
1 44714U 19074B   20032.58334491  .00013627  00000-0  10124-3 0  9995
2 44714  53.0055 122.9324 0004215  33.4777 221.6337 15.73219816 12927
STARLINK-1009
1 44715U 19074C   20032.58334491  .00020686  00000-0  15111-3 0  9990
2 44715  53.0048 122.9220 0003293  14.0362 243.5779 15.73244337 12924
STARLINK-1010
1 44716U 19074D   20032.25001157  .00308525  00000-0  21264-2 0  9991
2 44716  53.0049 124.5742 0003224  31.1777 139.9835 15.73154848  1811
STARLINK-1011
1 44717U 19074E   20032.58334491 -.00098086  00000-0 -52065-2 0  9991
2 44717  53.0030 129.1800 0001270  62.1340  54.9267 15.15264643 12837
